[{"OBJECT_NAME":"SCS-01 H","OBJECT_ID":"2025-100H","EPOCH":"2026-03-09T23:19:05.376864","MEAN_MOTION":15.31767757,"ECCENTRICITY":0.00071581,"INCLINATION":97.3749,"RA_OF_ASC_NODE":145.8085,"ARG_OF_PERICENTER":277.8492,"MEAN_ANOMALY":82.1937,"EPHEMERIS_TYPE":0,"CLASSIFICATION_TYPE":"U","NORAD_CAT_ID":63989,"ELEMENT_SET_NO":999,"REV_AT_EPOCH":4566,"BSTAR":0.0011436254,"MEAN_MOTION_DOT":0.00035149,"MEAN_MOTION_DDOT":0},{"OBJECT_NAME":"STARLINK-34588","OBJECT_ID":"2025-144F","EPOCH":"2026-03-09T18:38:49.778592","MEAN_MOTION":15.30199915,"ECCENTRICITY":0.00012163,"INCLINATION":53.158,"RA_OF_ASC_NODE":180.7507,"ARG_OF_PERICENTER":82.8633,"MEAN_ANOMALY":277.2506,"EPHEMERIS_TYPE":0,"CLASSIFICATION_TYPE":"U","NORAD_CAT_ID":64729,"ELEMENT_SET_NO":999,"REV_AT_EPOCH":3972,"BSTAR":0.00071808352,"MEAN_MOTION_DOT":0.00020968,"MEAN_MOTION_DDOT":0}]
